{
  "norad_id": 59012,
  "name": "STARLINK-31465",
  "history": [
    {
      "epoch": "2026-05-05T09:57:47.066112Z",
      "apogee_km": 475.98404831874814,
      "perigee_km": 474.4516381757976,
      "latitude_deg": 3.6399815470212103e-05,
      "longitude_deg": 162.2235766592858,
      "height_km": 475.9449831954968,
      "semi_major_axis_km": 6853.354843247273,
      "eccentricity": 0.0001118,
      "inclination_deg": 53.1597,
      "raan_deg": 174.9601,
      "arg_perigee_deg": 77.0931,
      "mean_anomaly_deg": 283.0195,
      "mean_motion_rev_day": 15.30199071
    },
    {
      "epoch": "2026-05-06T07:54:32.269824Z",
      "apogee_km": 476.0942360459312,
      "perigee_km": 474.4024093451708,
      "latitude_deg": 3.3831959359572877e-06,
      "longitude_deg": -172.11468592508726,
      "height_km": 475.9686815413258,
      "semi_major_axis_km": 6853.385322695551,
      "eccentricity": 0.00012343,
      "inclination_deg": 53.1609,
      "raan_deg": 170.7115,
      "arg_perigee_deg": 77.8599,
      "mean_anomaly_deg": 282.254,
      "mean_motion_rev_day": 15.30188863
    },
    {
      "epoch": "2026-05-07T19:57:45.625248Z",
      "apogee_km": 476.0876892226761,
      "perigee_km": 474.375717720548,
      "latitude_deg": -1.9873231851028537e-05,
      "longitude_deg": -1.3780295344734448,
      "height_km": 476.0035908805447,
      "semi_major_axis_km": 6853.368703471611,
      "eccentricity": 0.0001249,
      "inclination_deg": 53.1602,
      "raan_deg": 163.7345,
      "arg_perigee_deg": 81.5178,
      "mean_anomaly_deg": 278.5964,
      "mean_motion_rev_day": 15.30194429
    },
    {
      "epoch": "2026-05-08T19:28:33.414240Z",
      "apogee_km": 476.0571819685929,
      "perigee_km": 474.42470734217477,
      "latitude_deg": 3.906230697561396e-05,
      "longitude_deg": 0.4063348273168334,
      "height_km": 476.0595383112522,
      "semi_major_axis_km": 6853.3779446553835,
      "eccentricity": 0.0001191,
      "inclination_deg": 53.1592,
      "raan_deg": 159.1836,
      "arg_perigee_deg": 84.4104,
      "mean_anomaly_deg": 275.7033,
      "mean_motion_rev_day": 15.30191334
    },
    {
      "epoch": "2026-05-09T18:59:22.012800Z",
      "apogee_km": 476.15259955198144,
      "perigee_km": 474.40360801749557,
      "latitude_deg": 5.382736629423897e-05,
      "longitude_deg": 2.186584623276681,
      "height_km": 476.25657621031735,
      "semi_major_axis_km": 6853.415103784739,
      "eccentricity": 0.0001276,
      "inclination_deg": 53.16,
      "raan_deg": 154.632,
      "arg_perigee_deg": 95.2762,
      "mean_anomaly_deg": 264.8385,
      "mean_motion_rev_day": 15.30178889
    },
    {
      "epoch": "2026-05-10T09:05:50.141184Z",
      "apogee_km": 476.06799512214,
      "perigee_km": 474.3944026079762,
      "latitude_deg": -2.6219249261747342e-05,
      "longitude_deg": 147.26093528008386,
      "height_km": 476.0755150934847,
      "semi_major_axis_km": 6853.368198865058,
      "eccentricity": 0.0001221,
      "inclination_deg": 53.1596,
      "raan_deg": 151.903,
      "arg_perigee_deg": 86.3145,
      "mean_anomaly_deg": 273.7995,
      "mean_motion_rev_day": 15.30194598
    },
    {
      "epoch": "2026-05-11T18:00:57.445632Z",
      "apogee_km": 476.03311443105576,
      "perigee_km": 474.46780073574337,
      "latitude_deg": -1.6449162673152873e-05,
      "longitude_deg": 5.757783851665508,
      "height_km": 476.0911205301387,
      "semi_major_axis_km": 6853.387457583399,
      "eccentricity": 0.0001142,
      "inclination_deg": 53.1596,
      "raan_deg": 145.5322,
      "arg_perigee_deg": 85.7834,
      "mean_anomaly_deg": 274.3297,
      "mean_motion_rev_day": 15.30188148
    },
    {
      "epoch": "2026-05-12T17:31:45.244128Z",
      "apogee_km": 476.00831697479134,
      "perigee_km": 474.46767827532585,
      "latitude_deg": -7.794997122232612e-06,
      "longitude_deg": 7.541874257166084,
      "height_km": 476.0757387821139,
      "semi_major_axis_km": 6853.374997625058,
      "eccentricity": 0.0001124,
      "inclination_deg": 53.1594,
      "raan_deg": 140.9811,
      "arg_perigee_deg": 85.4975,
      "mean_anomaly_deg": 274.6154,
      "mean_motion_rev_day": 15.30192321
    },
    {
      "epoch": "2026-05-13T10:46:20.551872Z",
      "apogee_km": 475.9895783501797,
      "perigee_km": 474.49828265970245,
      "latitude_deg": 2.1367032965151866e-05,
      "longitude_deg": 104.85013017853359,
      "height_km": 476.0680004154203,
      "semi_major_axis_km": 6853.380930504941,
      "eccentricity": 0.0001088,
      "inclination_deg": 53.1584,
      "raan_deg": 137.6446,
      "arg_perigee_deg": 84.2981,
      "mean_anomaly_deg": 275.8144,
      "mean_motion_rev_day": 15.30190334
    },
    {
      "epoch": "2026-05-14T05:34:58.736928Z",
      "apogee_km": 476.0007406882678,
      "perigee_km": 474.46805270910954,
      "latitude_deg": 3.412252086344611e-05,
      "longitude_deg": 178.27911151369494,
      "height_km": 475.9620232423397,
      "semi_major_axis_km": 6853.371396698688,
      "eccentricity": 0.00011182,
      "inclination_deg": 53.1584,
      "raan_deg": 134.0052,
      "arg_perigee_deg": 77.1437,
      "mean_anomaly_deg": 282.9689,
      "mean_motion_rev_day": 15.30193527
    },
    {
      "epoch": "2026-05-15T06:39:49.941504Z",
      "apogee_km": 476.05860928287166,
      "perigee_km": 474.40681011544075,
      "latitude_deg": -1.9864169402796188e-05,
      "longitude_deg": 156.1781832656538,
      "height_km": 476.29052494835827,
      "semi_major_axis_km": 6853.369709699156,
      "eccentricity": 0.00012051,
      "inclination_deg": 53.1598,
      "raan_deg": 129.1477,
      "arg_perigee_deg": 101.1453,
      "mean_anomaly_deg": 258.9683,
      "mean_motion_rev_day": 15.30194092
    }
  ]
}